NORAD_CAT_ID,OBJECT_NAME,OBJECT_TYPE,EPOCH,MEAN_MOTION,ECCENTRICITY,INCLINATION,RA_OF_ASC_NODE,ARG_OF_PERICENTER,MEAN_ANOMALY,BSTAR,MEAN_MOTION_DOT,MEAN_MOTION_DDOT,TLE_LINE0,TLE_LINE1,TLE_LINE2,SEMIMAJOR_AXIS,PERIOD,APOGEE,PERIGEE,DECAYED
51114.0,STARLINK-3375,PAYLOAD,2023-02-02 06:14:01,15.0884997,0.0001324,53.2146,328.3156,112.0016,248.1116,0.0011842,0.00018614,0.0,0 STARLINK-3375,1 51114U 22005L   23033.25974213  .00018614  00000-0  11842-2 0  9993,2 51114  53.2146 328.3156 0001324 112.0016 248.1116 15.08849970 58078,6917.85,95.437,540.631,538.799,0.0
51114.0,STARLINK-3375,PAYLOAD,2023-02-03 04:29:25,15.08851837,0.000131,53.2156,324.1504,108.8403,251.2731,0.00044046,6.731e-05,0.0,0 STARLINK-3375,1 51114U 22005L   23034.18709875  .00006731  00000-0  44046-3 0  9996,2 51114  53.2156 324.1504 0001310 108.8403 251.2731 15.08851837 59320,6917.844,95.437,540.615,538.803,0.0
51114.0,STARLINK-3375,PAYLOAD,2023-02-04 04:20:13,15.08836745,0.00016,53.2153,319.6916,85.4223,274.6952,3.8157e-05,3.19e-06,0.0,0 STARLINK-3375,1 51114U 22005L   23035.18070655  .00000319  00000-0  38157-4 0  9997,2 51114  53.2153 319.6916 0001600  85.4223 274.6952 15.08836745 59476,6917.89,95.438,540.862,538.648,0.0
51114.0,STARLINK-3375,PAYLOAD,2023-02-05 04:10:59,15.08848739,0.000153,53.2161,315.2289,90.2465,269.8702,0.00019983,2.894e-05,0.0,0 STARLINK-3375,1 51114U 22005L   23036.17430292  .00002894  00000-0  19983-3 0  9999,2 51114  53.2161 315.2289 0001530  90.2465 269.8702 15.08848739 59626,6917.854,95.437,540.777,538.66,0.0
51114.0,STARLINK-3375,PAYLOAD,2023-02-05 21:40:14,15.08839972,0.0001423,53.215,311.9578,80.018,280.0973,0.00014856,2.077e-05,0.0,0 STARLINK-3375,1 51114U 22005L   23036.90294883  .00002077  00000-0  14856-3 0  9991,2 51114  53.2150 311.9578 0001423  80.0180 280.0973 15.08839972 58623,6917.88,95.438,540.73,538.761,0.0
51114.0,STARLINK-3375,PAYLOAD,2023-02-06 00:51:00,15.08840863,0.0001288,53.2154,311.364,88.4051,271.7088,0.00014482,2.018e-05,0.0,0 STARLINK-3375,1 51114U 22005L   23037.03542817  .00002018  00000-0  14482-3 0  9999,2 51114  53.2154 311.3640 0001288  88.4051 271.7088 15.08840863 59759,6917.878,95.438,540.634,538.852,0.0
51114.0,STARLINK-3375,PAYLOAD,2023-02-06 04:01:47,15.08844336,0.0001336,53.2156,310.7689,89.2285,270.886,0.00020396,2.96e-05,0.0,0 STARLINK-3375,1 51114U 22005L   23037.16790722  .00002960  00000-0  20396-3 0  9990,2 51114  53.2156 310.7689 0001336  89.2285 270.8860 15.08844336 58665,6917.867,95.437,540.656,538.808,0.0
51114.0,STARLINK-3375,PAYLOAD,2023-02-06 21:31:01,15.08848736,0.0001423,53.2144,307.4978,90.9762,269.1394,0.00021233,3.094e-05,0.0,0 STARLINK-3375,1 51114U 22005L   23037.89654447  .00003094  00000-0  21233-3 0  9993,2 51114  53.2144 307.4978 0001423  90.9762 269.1394 15.08848736 58775,6917.854,95.437,540.703,538.734,0.0
51114.0,STARLINK-3375,PAYLOAD,2023-02-07 02:17:10,15.08860634,0.0001328,53.2157,306.6079,76.2194,283.8946,0.00060246,9.319e-05,0.0,0 STARLINK-3375,1 51114U 22005L   23038.09526125  .00009319  00000-0  60246-3 0  9990,2 51114  53.2157 306.6079 0001328  76.2194 283.8946 15.08860634 59916,6917.817,95.436,540.601,538.764,0.0
51114.0,STARLINK-3375,PAYLOAD,2023-02-07 03:52:33,15.08865464,0.0001323,53.2156,306.3098,74.7592,285.3546,0.0010544,0.00016544,0.0,0 STARLINK-3375,1 51114U 22005L   23038.16150193  .00016544  00000-0  10544-2 0  9999,2 51114  53.2156 306.3098 0001323  74.7592 285.3546 15.08865464 58810,6917.803,95.436,540.583,538.752,0.0
51114.0,STARLINK-3375,PAYLOAD,2023-02-07 18:11:02,15.0884206,0.000107,53.2141,303.6313,90.8999,269.2115,7.8203e-05,9.57e-06,0.0,0 STARLINK-3375,1 51114U 22005L   23038.75766528  .00000957  00000-0  78203-4 0  9998,2 51114  53.2141 303.6313 0001070  90.8999 269.2115 15.08842060 60018,6917.874,95.437,540.479,538.999,0.0
51114.0,STARLINK-3375,PAYLOAD,2023-02-07 21:21:48,15.08847611,0.0001186,53.2143,303.0372,100.0802,260.0324,0.00022771,3.339e-05,0.0,0 STARLINK-3375,1 51114U 22005L   23038.89014370  .00003339  00000-0  22771-3 0  9999,2 51114  53.2143 303.0372 0001186 100.0802 260.0324 15.08847611 58929,6917.857,95.437,540.543,538.902,0.0
51114.0,STARLINK-3375,PAYLOAD,2023-02-08 03:43:20,15.08871477,0.000117,53.215,301.8495,93.8449,266.2677,0.0012568,0.00019788,0.0,0 STARLINK-3375,1 51114U 22005L   23039.15509871  .00019788  00000-0  12568-2 0  9991,2 51114  53.2150 301.8495 0001170  93.8449 266.2677 15.08871477 60073,6917.784,95.436,540.459,538.84,0.0
51114.0,STARLINK-3375,PAYLOAD,2023-02-08 21:12:35,15.08843153,0.0001169,53.2144,298.5793,81.7631,278.3493,0.001517,0.0002394,0.0,0 STARLINK-3375,1 51114U 22005L   23039.88374962  .00023940  00000-0  15170-2 0  9999,2 51114  53.2144 298.5793 0001169  81.7631 278.3493 15.08843153 59074,6917.871,95.437,540.544,538.927,0.0
51114.0,STARLINK-3375,PAYLOAD,2023-02-09 03:34:08,15.088475,0.00013,53.2143,297.3898,71.6097,288.5036,0.0015627,0.00024675,0.0,0 STARLINK-3375,1 51114U 22005L   23040.14871020  .00024675  00000-0  15627-2 0  9990,2 51114  53.2143 297.3898 0001300  71.6097 288.5036 15.08847500 60222,6917.857,95.437,540.622,538.823,0.0
51114.0,STARLINK-3375,PAYLOAD,2023-02-09 21:03:23,15.08847733,0.0001505,53.2137,294.1184,79.6665,280.4497,0.0017099,0.00027036,0.0,0 STARLINK-3375,1 51114U 22005L   23040.87735704  .00027036  00000-0  17099-2 0  9997,2 51114  53.2137 294.1184 0001505  79.6665 280.4497 15.08847733 60336,6917.857,95.437,540.763,538.681,0.0
51114.0,STARLINK-3375,PAYLOAD,2023-02-10 01:49:33,15.08854505,0.0001797,53.2136,293.2262,71.2484,288.8703,0.0015784,0.00024932,0.0,0 STARLINK-3375,1 51114U 22005L   23041.07607652  .00024932  00000-0  15784-2 0  9991,2 51114  53.2136 293.2262 0001797  71.2484 288.8703 15.08854505 59258,6917.836,95.437,540.944,538.458,0.0
51114.0,STARLINK-3375,PAYLOAD,2023-02-10 22:29:33,15.08861494,9.48e-05,53.2135,289.3604,105.9375,254.1721,0.0014801,0.0002336,0.0,0 STARLINK-3375,1 51114U 22005L   23041.93719083  .00023360  00000-0  14801-2 0  9991,2 51114  53.2135 289.3604 0000948 105.9375 254.1721 15.08861494 60493,6917.815,95.436,540.336,539.024,0.0
51114.0,STARLINK-3375,PAYLOAD,2023-02-11 00:04:56,15.0887007,0.0001163,53.2136,289.0632,98.8023,261.3101,0.0019014,0.00030127,0.0,0 STARLINK-3375,1 51114U 22005L   23042.00342952  .00030127  00000-0  19014-2 0  9997,2 51114  53.2136 289.0632 0001163  98.8023 261.3101 15.08870070 59391,6917.788,95.436,540.458,538.849,0.0
51114.0,STARLINK-3375,PAYLOAD,2023-02-11 22:20:20,15.08854383,0.0001541,53.2138,284.8986,89.2798,270.8371,0.0017295,0.00027355,0.0,0 STARLINK-3375,1 51114U 22005L   23042.93079601  .00027355  00000-0  17295-2 0  9995,2 51114  53.2138 284.8986 0001541  89.2798 270.8371 15.08854383 59530,6917.836,95.437,540.767,538.635,0.0
51114.0,STARLINK-3375,PAYLOAD,2023-02-12 09:28:02,15.08821952,0.0001147,53.2139,282.8167,98.6606,261.4516,-8.0921e-05,-1.575e-05,0.0,0 STARLINK-3375,1 51114U 22005L   23043.39447803 -.00001575  00000-0 -80921-4 0  9995,2 51114  53.2139 282.8167 0001147  98.6606 261.4516 15.08821952 60719,6917.936,95.439,540.594,539.007,0.0
51114.0,STARLINK-3375,PAYLOAD,2023-02-13 01:21:54,15.08840821,0.0001265,53.2136,279.8438,82.7078,277.4058,0.0013059,0.00020557,0.0,0 STARLINK-3375,1 51114U 22005L   23044.05688193  .00020557  00000-0  13059-2 0  9993,2 51114  53.2136 279.8438 0001265  82.7078 277.4058 15.08840821 60816,6917.878,95.438,540.618,538.868,0.0
51114.0,STARLINK-3375,PAYLOAD,2023-02-13 18:51:09,15.08844603,0.0001176,53.2136,276.5714,90.5747,269.538,0.00083157,0.00012973,0.0,0 STARLINK-3375,1 51114U 22005L   23044.78552286  .00012973  00000-0  83157-3 0  9996,2 51114  53.2136 276.5714 0001176  90.5747 269.5380 15.08844603 60922,6917.866,95.437,540.545,538.918,0.0
51114.0,STARLINK-3375,PAYLOAD,2023-02-14 01:12:41,15.0885782,0.0001241,53.2129,275.3822,85.1363,274.977,0.0011048,0.00017347,0.0,0 STARLINK-3375,1 51114U 22005L   23045.05048080  .00017347  00000-0  11048-2 0  9998,2 51114  53.2129 275.3822 0001241  85.1363 274.9770 15.08857820 59856,6917.826,95.436,540.549,538.832,0.0
51114.0,STARLINK-3375,PAYLOAD,2023-02-14 21:52:42,15.08836528,0.0001891,53.2147,271.5143,88.6636,271.4573,0.0013266,0.00020886,0.0,0 STARLINK-3375,1 51114U 22005L   23045.91160418  .00020886  00000-0  13266-2 0  9999,2 51114  53.2147 271.5143 0001891  88.6636 271.4573 15.08836528 61096,6917.891,95.438,541.064,538.448,0.0
51114.0,STARLINK-3375,PAYLOAD,2023-02-15 07:25:01,15.08843755,0.0001454,53.2145,269.73,84.9532,275.1626,0.0003738,5.667e-05,0.0,0 STARLINK-3375,1 51114U 22005L   23046.30904074  .00005667  00000-0  37380-3 0  9991,2 51114  53.2145 269.7300 0001454  84.9532 275.1626 15.08843755 60041,6917.869,95.437,540.74,538.728,0.0
51114.0,STARLINK-3375,PAYLOAD,2023-02-15 20:08:05,15.08848399,0.0001561,53.2156,267.3526,95.2401,264.877,4.4841e-05,4.26e-06,0.0,0 STARLINK-3375,1 51114U 22005L   23046.83895753  .00000426  00000-0  44841-4 0  9991,2 51114  53.2156 267.3526 0001561  95.2401 264.8770 15.08848399 61232,6917.855,95.437,540.8,538.64,0.0
51114.0,STARLINK-3375,PAYLOAD,2023-02-16 13:37:20,15.08841201,0.0001439,53.2146,264.0828,93.7344,266.3813,7.4549e-05,8.99e-06,0.0,0 STARLINK-3375,1 51114U 22005L   23047.56759967  .00000899  00000-0  74549-4 0  9990,2 51114  53.2146 264.0828 0001439  93.7344 266.3813 15.08841201 61345,6917.877,95.437,540.737,538.746,0.0
51114.0,STARLINK-3375,PAYLOAD,2023-02-16 21:34:16,15.08843244,0.0001275,53.2134,262.5973,99.6805,260.4331,0.00012514,1.704e-05,0.0,0 STARLINK-3375,1 51114U 22005L   23047.89879799  .00001704  00000-0  12514-3 0  9991,2 51114  53.2134 262.5973 0001275  99.6805 260.4331 15.08843244 60282,6917.87,95.437,540.618,538.853,0.0
51114.0,STARLINK-3375,PAYLOAD,2023-02-17 13:28:08,15.08833707,0.0001624,53.2157,259.6226,90.8122,269.3056,-4.8692e-05,-1.063e-05,0.0,0 STARLINK-3375,1 51114U 22005L   23048.56120381 -.00001063  00000-0 -48692-4 0  9999,2 51114  53.2157 259.6226 0001624  90.8122 269.3056 15.08833707 61497,6917.9,95.438,540.888,538.641,0.0
